TEVEL2-9                
1 63237U 25052AD  26068.70229538  .00018694  00000+0  67240-3 0  9992
2 63237  97.4057 324.3929 0007990 124.2475 235.9522 15.28633834 54816
STARLINK-34138          
1 63971U 25099V   26068.34322387  .00028264  00000+0  10320-2 0  9994
2 63971  43.0010 174.6815 0004306 288.6513  71.3871 15.27596925 47328
